Results
*******************************************************************************
 Revised: Jan 26, 2022             Iapetus / (Saturn)                       608
                          http://ssd.jpl.nasa.gov/?sat_phys_par
                            http://ssd.jpl.nasa.gov/?sat_elem

 SATELLITE PHYSICAL PROPERTIES:
  Radius (km)            = 734.5    +- 4.0    Density (g/cm^3)=  1.088 +- 0.018 
  Mass (10^19 kg)        = 180.59             Geometric Albedo=  0.6
  GM (km^3/s^2)          = 120.52   +- 0.03   V(1,0)          =   +1.5 (.7-2.5)

 SATELLITE ORBITAL DATA (mean values with respect to local Laplace plane):
  Semi-major axis, a (km)= 3560.84 (10^3)     Orbital period    = 79.33 d
  Eccentricity, e        =     0.0283         Rotational period = Synchronous
  Inclination, i  (deg)  =     7.489
*******************************************************************************


*******************************************************************************
Ephemeris / API_USER Tue Nov 18 21:01:24 2025 Pasadena, USA      / Horizons    
*******************************************************************************
Target body name: Iapetus (608)                   {source: sat441l}
Center body name: Earth (399)                     {source: DE441}
Center-site name: GEOCENTRIC
*******************************************************************************
Start time      : A.D. 2020-Jan-01 00:00:00.0000 UT      
Stop  time      : A.D. 2020-Dec-20 00:00:00.0000 UT      
Step-size       : 1440 minutes
*******************************************************************************
Target pole/equ : IAU_IAPETUS                     {West-longitude positive}
Target radii    : 745.7, 745.7, 712.1 km          {Equator_a, b, pole_c}       
Center geodetic : 0.0, 0.0, -6378.137             {E-lon(deg),Lat(deg),Alt(km)}
Center cylindric: 0.0, 0.0, 0.0                   {E-lon(deg),Dxy(km),Dz(km)}
Center pole/equ : ITRF93                          {East-longitude positive}
Center radii    : 6378.137, 6378.137, 6356.752 km {Equator_a, b, pole_c}       
Target primary  : Saturn
Vis. interferer : MOON (R_eq= 1737.400) km        {source: DE441}
Rel. light bend : Sun                             {source: DE441}
Rel. lght bnd GM: 1.3271E+11 km^3/s^2                                          
Atmos refraction: NO (AIRLESS)
RA format       : HMS
Time format     : CAL 
Calendar mode   : Mixed Julian/Gregorian
EOP file        : eop.251118.p260214                                           
EOP coverage    : DATA-BASED 1962-JAN-20 TO 2025-NOV-18. PREDICTS-> 2026-FEB-13
Units conversion: 1 au= 149597870.700 km, c= 299792.458 km/s, 1 day= 86400.0 s 
Table cut-offs 1: Elevation (-90.0deg=NO ),Airmass (>38.000=NO), Daylight (NO )
Table cut-offs 2: Solar elongation (  0.0,180.0=NO ),Local Hour Angle( 0.0=NO )
Table cut-offs 3: RA/DEC angular rate (     0.0=NO )                           
**************************************************************************************************************************
 Date__(UT)__HR:MN     R.A._____(ICRF)_____DEC    APmag   S-brt             delta      deldot     S-O-T /r     S-T-O  Cnst
**************************************************************************************************************************
$$SOE
 2020-Jan-01 00:00     19 30 54.39 -21 42 17.6   11.720   7.813  11.0117825586338   7.9214615   11.2953 /T    1.1016   Sgr
 2020-Jan-02 00:00     19 31 26.01 -21 41 16.3   11.721   7.813  11.0161837427370   7.3171588   10.3995 /T    1.0154   Sgr
 2020-Jan-03 00:00     19 31 57.81 -21 40 15.0   11.722   7.813  11.0202318421869   6.6988901    9.5044 /T    0.9290   Sgr
 2020-Jan-04 00:00     19 32 29.77 -21 39 13.7   11.723   7.814  11.0239190501265   6.0675667    8.6100 /T    0.8425   Sgr
 2020-Jan-05 00:00     19 33 01.87 -21 38 12.4   11.724   7.814  11.0272381094915   5.4241822    7.7163 /T    0.7558   Sgr
 2020-Jan-06 00:00     19 33 34.10 -21 37 11.0   11.725   7.814  11.0301823611288   4.7698128    6.8231 /T    0.6691   Sgr
 2020-Jan-07 00:00     19 34 06.45 -21 36 09.7   11.725   7.814  11.0327457876761   4.1056012    5.9305 /T    0.5823   Sgr
 2020-Jan-08 00:00     19 34 38.89 -21 35 08.3   11.726   7.814  11.0349230463629   3.4327389    5.0383 /T    0.4954   Sgr
 2020-Jan-09 00:00     19 35 11.42 -21 34 06.9   11.726   7.814  11.0367094944589   2.7524580    4.1466 /T    0.4085   Sgr
 2020-Jan-10 00:00     19 35 44.00 -21 33 05.5   11.727   7.814  11.0381012111668   2.0660255    3.2553 /T    0.3215   Sgr
 2020-Jan-11 00:00     19 36 16.63 -21 32 04.1   11.727   7.814  11.0390950162062   1.3747381    2.3642 /T    0.2345   Sgr
 2020-Jan-12 00:00     19 36 49.28 -21 31 02.6   11.727   7.814  11.0396884863996   0.6799219    1.4735 /T    0.1474   Sgr
 2020-Jan-13 00:00     19 37 21.94 -21 30 01.1   11.727   7.814  11.0398799750971  -0.0170577    0.5840 /T    0.0603   Sgr
 2020-Jan-14 00:00     19 37 54.58 -21 28 59.5   11.727   7.814  11.0396686395635  -0.7147792    0.3133 /L    0.0269   Sgr
 2020-Jan-15 00:00     19 38 27.19 -21 27 57.9   11.727   7.814  11.0390544784244  -1.4117480    1.2012 /L    0.1139   Sgr
 2020-Jan-16 00:00     19 38 59.75 -21 26 56.2   11.726   7.814  11.0380383770572  -2.1063875    2.0919 /L    0.2011   Sgr
 2020-Jan-17 00:00     19 39 32.23 -21 25 54.3   11.726   7.814  11.0366221548539  -2.7970415    2.9830 /L    0.2882   Sgr
 2020-Jan-18 00:00     19 40 04.63 -21 24 52.3   11.725   7.814  11.0348086075156  -3.4819885    3.8746 /L    0.3753   Sgr
 2020-Jan-19 00:00     19 40 36.91 -21 23 50.2   11.725   7.814  11.0326015386242  -4.1594641    4.7665 /L    0.4624   Sgr
 2020-Jan-20 00:00     19 41 09.07 -21 22 48.0   11.724   7.813  11.0300057772050  -4.8276863    5.6588 /L    0.5495   Sgr
 2020-Jan-21 00:00     19 41 41.07 -21 21 45.5   11.723   7.813  11.0270271800930  -5.4848825    6.5516 /L    0.6365   Sgr
 2020-Jan-22 00:00     19 42 12.91 -21 20 42.8   11.722   7.813  11.0236726187994  -6.1293164    7.4449 /L    0.7235   Sgr
 2020-Jan-23 00:00     19 42 44.57 -21 19 39.9   11.721   7.812  11.0199499508850  -6.7593145    8.3387 /L    0.8104   Sgr
 2020-Jan-24 00:00     19 43 16.03 -21 18 36.8   11.720   7.812  11.0158679760656  -7.3732920    9.2332 /L    0.8972   Sgr
 2020-Jan-25 00:00     19 43 47.26 -21 17 33.4   11.719   7.812  11.0114363782756  -7.9697747   10.1282 /L    0.9839   Sgr
 2020-Jan-26 00:00     19 44 18.27 -21 16 29.7   11.717   7.811  11.0066656582755  -8.5474107   11.0239 /L    1.0705   Sgr
 2020-Jan-27 00:00     19 44 49.03 -21 15 25.7   11.716   7.811  11.0015670587655  -9.1049866   11.9202 /L    1.1569   Sgr
 2020-Jan-28 00:00     19 45 19.54 -21 14 21.4   11.715   7.811  10.9961524765649  -9.6414554   12.8173 /L    1.2432   Sgr
 2020-Jan-29 00:00     19 45 49.78 -21 13 16.8   11.713   7.810  10.9904343611337 -10.1559516   13.7150 /L    1.3293   Sgr
 2020-Jan-30 00:00     19 46 19.74 -21 12 11.8   11.711   7.810  10.9844256088381 -10.6477932   14.6135 /L    1.4153   Sgr
 2020-Jan-31 00:00     19 46 49.41 -21 11 06.4   11.710   7.809  10.9781394575455 -11.1164797   15.5127 /L    1.5010   Sgr
 2020-Feb-01 00:00     19 47 18.79 -21 10 00.7   11.708   7.809  10.9715893819672 -11.5616917   16.4127 /L    1.5865   Sgr
 2020-Feb-02 00:00     19 47 47.87 -21 08 54.6   11.706   7.808  10.9647889890932 -11.9832906   17.3134 /L    1.6717   Sgr
 2020-Feb-03 00:00     19 48 16.65 -21 07 48.1   11.704   7.808  10.9577519139997 -12.3813180   18.2149 /L    1.7567   Sgr
 2020-Feb-04 00:00     19 48 45.12 -21 06 41.3   11.702   7.807  10.9504917154243 -12.7559966   19.1171 /L    1.8414   Sgr
 2020-Feb-05 00:00     19 49 13.29 -21 05 34.0   11.701   7.807  10.9430217711663 -13.1077310   20.0201 /L    1.9257   Sgr
 2020-Feb-06 00:00     19 49 41.16 -21 04 26.4   11.699   7.807  10.9353551721644 -13.4371103   20.9238 /L    2.0097   Sgr
 2020-Feb-07 00:00     19 50 08.72 -21 03 18.4   11.697   7.806  10.9275046156154 -13.7449089   21.8283 /L    2.0933   Sgr
 2020-Feb-08 00:00     19 50 35.98 -21 02 10.0   11.695   7.806  10.9194822986592 -14.0320825   22.7335 /L    2.1766   Sgr
 2020-Feb-09 00:00     19 51 02.94 -21 01 01.3   11.693   7.805  10.9112998173749 -14.2997530   23.6394 /L    2.2594   Sgr
 2020-Feb-10 00:00     19 51 29.61 -20 59 52.2   11.691   7.805  10.9029680790402 -14.5491772   24.5461 /L    2.3417   Sgr
 2020-Feb-11 00:00     19 51 56.00 -20 58 42.8   11.689   7.805  10.8944972366835 -14.7817017   25.4534 /L    2.4236   Sgr
 2020-Feb-12 00:00     19 52 22.11 -20 57 33.0   11.687   7.804  10.8858966521011 -14.9987115   26.3615 /L    2.5050   Sgr
 2020-Feb-13 00:00     19 52 47.95 -20 56 23.0   11.685   7.804  10.8771748857720 -15.2015913   27.2702 /L    2.5858   Sgr
 2020-Feb-14 00:00     19 53 13.53 -20 55 12.7   11.683   7.804  10.8683397042856 -15.3917040   28.1796 /L    2.6662   Sgr
 2020-Feb-15 00:00     19 53 38.86 -20 54 02.1   11.681   7.804  10.8593980942136 -15.5703865   29.0897 /L    2.7459   Sgr
 2020-Feb-16 00:00     19 54 03.94 -20 52 51.4   11.679   7.803  10.8503562792498 -15.7389428   30.0003 /L    2.8250   Sgr
 2020-Feb-17 00:00     19 54 28.79 -20 51 40.4   11.677   7.803  10.8412197396880 -15.8986442   30.9115 /L    2.9034   Sgr
 2020-Feb-18 00:00     19 54 53.41 -20 50 29.3   11.675   7.803  10.8319932284904 -16.0507395   31.8232 /L    2.9812   Sgr
 2020-Feb-19 00:00     19 55 17.82 -20 49 18.1   11.673   7.803  10.8226807817529 -16.1964630   32.7353 /L    3.0583   Sgr
 2020-Feb-20 00:00     19 55 42.02 -20 48 06.8   11.671   7.803  10.8132857270027 -16.3370333   33.6479 /L    3.1347   Sgr
 2020-Feb-21 00:00     19 56 06.02 -20 46 55.5   11.669   7.803  10.8038106928598 -16.4736511   34.5608 /L    3.2103   Sgr
 2020-Feb-22 00:00     19 56 29.84 -20 45 44.2   11.667   7.803  10.7942576212150 -16.6074931   35.4740 /L    3.2851   Sgr
 2020-Feb-23 00:00     19 56 53.47 -20 44 32.9   11.665   7.803  10.7846277817540 -16.7397094   36.3875 /L    3.3591   Sgr
